{
  "norad_id": 58984,
  "name": "STARLINK-31379",
  "history": [
    {
      "epoch": "2026-03-28T20:32:44.852352Z",
      "apogee_km": 476.06134475359613,
      "perigee_km": 474.42338708514035,
      "latitude_deg": 3.697767793293505e-05,
      "longitude_deg": 73.49022113307093,
      "height_km": 475.8998992657827,
      "semi_major_axis_km": 6853.379365919368,
      "eccentricity": 0.0001195,
      "inclination_deg": 53.1598,
      "raan_deg": 207.9476,
      "arg_perigee_deg": 72.909,
      "mean_anomaly_deg": 287.2042,
      "mean_motion_rev_day": 15.30190858
    },
    {
      "epoch": "2026-03-29T07:31:07.626144Z",
      "apogee_km": 476.24232419251166,
      "perigee_km": 474.2881450793284,
      "latitude_deg": 4.00873507574209e-07,
      "longitude_deg": -93.67824161337334,
      "height_km": 476.12662799992614,
      "semi_major_axis_km": 6853.40223463592,
      "eccentricity": 0.00014257,
      "inclination_deg": 53.1626,
      "raan_deg": 205.8247,
      "arg_perigee_deg": 87.845,
      "mean_anomaly_deg": 272.2714,
      "mean_motion_rev_day": 15.30183199
    },
    {
      "epoch": "2026-03-30T13:18:08.801856Z",
      "apogee_km": 476.19854781314825,
      "perigee_km": 474.3119459954205,
      "latitude_deg": 1.3113481993977924e-05,
      "longitude_deg": 172.58019859743212,
      "height_km": 475.84717388803006,
      "semi_major_axis_km": 6853.392246904285,
      "eccentricity": 0.00013764,
      "inclination_deg": 53.1621,
      "raan_deg": 200.0612,
      "arg_perigee_deg": 71.0501,
      "mean_anomaly_deg": 289.0649,
      "mean_motion_rev_day": 15.30186544
    },
    {
      "epoch": "2026-03-30T14:52:12.105984Z",
      "apogee_km": 476.22423736164546,
      "perigee_km": 474.3091222373632,
      "latitude_deg": 2.7973617533872973e-05,
      "longitude_deg": 148.69826413709114,
      "height_km": 475.88260957130166,
      "semi_major_axis_km": 6853.403679799504,
      "eccentricity": 0.00013972,
      "inclination_deg": 53.1613,
      "raan_deg": 199.7574,
      "arg_perigee_deg": 72.8606,
      "mean_anomaly_deg": 287.2548,
      "mean_motion_rev_day": 15.30182715
    },
    {
      "epoch": "2026-03-31T23:47:18.942144Z",
      "apogee_km": 475.98155835919533,
      "perigee_km": 474.5297356608535,
      "latitude_deg": 1.0761642487923328e-05,
      "longitude_deg": 7.195851694783511,
      "height_km": 476.4326516630769,
      "semi_major_axis_km": 6853.392647010024,
      "eccentricity": 0.00010592,
      "inclination_deg": 53.1598,
      "raan_deg": 193.3854,
      "arg_perigee_deg": 112.5662,
      "mean_anomaly_deg": 247.5451,
      "mean_motion_rev_day": 15.3018641
    },
    {
      "epoch": "2026-04-02T14:58:38.764992Z",
      "apogee_km": 475.94104923680607,
      "perigee_km": 474.5345996553342,
      "latitude_deg": 2.361431448867727e-05,
      "longitude_deg": 130.16943929494198,
      "height_km": 476.02221698940394,
      "semi_major_axis_km": 6853.37482444607,
      "eccentricity": 0.00010261,
      "inclination_deg": 53.1593,
      "raan_deg": 185.801,
      "arg_perigee_deg": 80.6746,
      "mean_anomaly_deg": 279.4371,
      "mean_motion_rev_day": 15.30192379
    },
    {
      "epoch": "2026-04-03T12:55:26.051808Z",
      "apogee_km": 476.0153086328428,
      "perigee_km": 474.66544772843645,
      "latitude_deg": -3.987862092649383e-05,
      "longitude_deg": 155.8227543739603,
      "height_km": 476.2196968489881,
      "semi_major_axis_km": 6853.47737818064,
      "eccentricity": 9.848e-05,
      "inclination_deg": 53.1595,
      "raan_deg": 181.5527,
      "arg_perigee_deg": 88.3802,
      "mean_anomaly_deg": 271.7311,
      "mean_motion_rev_day": 15.30158033
    },
    {
      "epoch": "2026-04-04T12:26:11.230656Z",
      "apogee_km": 476.1455724570751,
      "perigee_km": 474.2787201496212,
      "latitude_deg": 1.800173793478665e-05,
      "longitude_deg": 157.61982566751433,
      "height_km": 476.1000996988393,
      "semi_major_axis_km": 6853.349146303348,
      "eccentricity": 0.0001362,
      "inclination_deg": 53.1595,
      "raan_deg": 177.0036,
      "arg_perigee_deg": 89.3899,
      "mean_anomaly_deg": 270.7258,
      "mean_motion_rev_day": 15.30200979
    },
    {
      "epoch": "2026-04-05T11:56:59.236512Z",
      "apogee_km": 476.08798649524033,
      "perigee_km": 474.48716358300226,
      "latitude_deg": 2.0889550615534317e-05,
      "longitude_deg": 159.40294371521261,
      "height_km": 475.9015463668671,
      "semi_major_axis_km": 6853.424575039121,
      "eccentricity": 0.00011679,
      "inclination_deg": 53.1604,
      "raan_deg": 172.4524,
      "arg_perigee_deg": 69.1885,
      "mean_anomaly_deg": 290.9241,
      "mean_motion_rev_day": 15.30175717
    },
    {
      "epoch": "2026-04-06T05:11:33.951552Z",
      "apogee_km": 476.1242035764999,
      "perigee_km": 474.2385815539692,
      "latitude_deg": 5.441409466825752e-05,
      "longitude_deg": -103.28642262265254,
      "height_km": 476.26561416030836,
      "semi_major_axis_km": 6853.318392565235,
      "eccentricity": 0.00013757,
      "inclination_deg": 53.1608,
      "raan_deg": 169.1158,
      "arg_perigee_deg": 101.389,
      "mean_anomaly_deg": 258.7266,
      "mean_motion_rev_day": 15.30211279
    },
    {
      "epoch": "2026-04-07T10:58:35.384736Z",
      "apogee_km": 475.897071737887,
      "perigee_km": 474.55107162340755,
      "latitude_deg": 1.343356445338692e-05,
      "longitude_deg": 162.97099757411826,
      "height_km": 476.06559662109197,
      "semi_major_axis_km": 6853.361071680647,
      "eccentricity": 9.82e-05,
      "inclination_deg": 53.1603,
      "raan_deg": 163.3524,
      "arg_perigee_deg": 85.1437,
      "mean_anomaly_deg": 274.9676,
      "mean_motion_rev_day": 15.30196985
    },
    {
      "epoch": "2026-04-08T10:29:23.243712Z",
      "apogee_km": 475.9154230942586,
      "perigee_km": 474.60971340851484,
      "latitude_deg": -2.775209180723321e-05,
      "longitude_deg": 164.7549948710685,
      "height_km": 475.9090441949957,
      "semi_major_axis_km": 6853.399568251387,
      "eccentricity": 9.526e-05,
      "inclination_deg": 53.1609,
      "raan_deg": 158.8015,
      "arg_perigee_deg": 67.273,
      "mean_anomaly_deg": 292.8371,
      "mean_motion_rev_day": 15.30184092
    },
    {
      "epoch": "2026-04-09T10:00:11.074176Z",
      "apogee_km": 476.11362214699056,
      "perigee_km": 474.3665592590278,
      "latitude_deg": 2.2637081162770285e-05,
      "longitude_deg": 166.53617950878072,
      "height_km": 476.1649394966811,
      "semi_major_axis_km": 6853.377090703008,
      "eccentricity": 0.00012746,
      "inclination_deg": 53.1604,
      "raan_deg": 154.2476,
      "arg_perigee_deg": 91.7544,
      "mean_anomaly_deg": 268.3603,
      "mean_motion_rev_day": 15.3019162
    },
    {
      "epoch": "2026-04-09T20:58:33.515328Z",
      "apogee_km": 476.11541330145883,
      "perigee_km": 474.37876577317,
      "latitude_deg": 7.774150257465225e-06,
      "longitude_deg": -0.6315786977450907,
      "height_km": 476.14037489063526,
      "semi_major_axis_km": 6853.384089537314,
      "eccentricity": 0.0001267,
      "inclination_deg": 53.1603,
      "raan_deg": 152.124,
      "arg_perigee_deg": 89.6819,
      "mean_anomaly_deg": 270.4327,
      "mean_motion_rev_day": 15.30189276
    },
    {
      "epoch": "2026-04-11T20:00:09.417312Z",
      "apogee_km": 476.1088958757582,
      "perigee_km": 474.39280755768687,
      "latitude_deg": -4.347862175285622e-06,
      "longitude_deg": 2.9363011662588394,
      "height_km": 476.11343936121915,
      "semi_major_axis_km": 6853.387851716722,
      "eccentricity": 0.0001252,
      "inclination_deg": 53.1602,
      "raan_deg": 143.0228,
      "arg_perigee_deg": 87.6267,
      "mean_anomaly_deg": 272.4877,
      "mean_motion_rev_day": 15.30188016
    },
    {
      "epoch": "2026-04-12T11:40:41.459808Z",
      "apogee_km": 476.1264887774423,
      "perigee_km": 474.375722252008,
      "latitude_deg": 2.150303894647821e-06,
      "longitude_deg": 124.12512242418418,
      "height_km": 476.115702621918,
      "semi_major_axis_km": 6853.388105514725,
      "eccentricity": 0.00012773,
      "inclination_deg": 53.1605,
      "raan_deg": 139.9889,
      "arg_perigee_deg": 87.8056,
      "mean_anomaly_deg": 272.3091,
      "mean_motion_rev_day": 15.30187931
    },
    {
      "epoch": "2026-04-14T18:32:34.621152Z",
      "apogee_km": 475.89508758861393,
      "perigee_km": 474.6422850291565,
      "latitude_deg": 6.08327033220912e-05,
      "longitude_deg": 8.282046118353495,
      "height_km": 476.12769666895326,
      "semi_major_axis_km": 6853.4056863088845,
      "eccentricity": 9.14e-05,
      "inclination_deg": 53.1612,
      "raan_deg": 129.3705,
      "arg_perigee_deg": 86.3699,
      "mean_anomaly_deg": 273.7407,
      "mean_motion_rev_day": 15.30182043
    },
    {
      "epoch": "2026-04-15T08:39:03.773376Z",
      "apogee_km": 476.15014731846077,
      "perigee_km": 474.5342339948875,
      "latitude_deg": -4.749189099700586e-05,
      "longitude_deg": 153.35119988686034,
      "height_km": 476.19885632795143,
      "semi_major_axis_km": 6853.479190656673,
      "eccentricity": 0.00011789,
      "inclination_deg": 53.1588,
      "raan_deg": 126.6406,
      "arg_perigee_deg": 87.063,
      "mean_anomaly_deg": 273.0505,
      "mean_motion_rev_day": 15.30157426
    },
    {
      "epoch": "2026-04-16T17:34:09.558048Z",
      "apogee_km": 476.0254269725683,
      "perigee_km": 474.37651385688605,
      "latitude_deg": -1.4087125948196838e-05,
      "longitude_deg": 11.85411918523996,
      "height_km": 475.8937962367251,
      "semi_major_axis_km": 6853.337970414726,
      "eccentricity": 0.0001203,
      "inclination_deg": 53.1599,
      "raan_deg": 120.2695,
      "arg_perigee_deg": 75.5745,
      "mean_anomaly_deg": 284.5389,
      "mean_motion_rev_day": 15.30204722
    }
  ]
}